STARLINK-37376          
1 69378U 26123AB  26167.25002315  .00049319  00000+0  25171-3 0  9991
2 69378  53.1582 245.8649 0000758  47.0561  49.2734 15.80897102  3148
STARLINK-37383          
1 69379U 26123AC  26167.25002315  .00045615  00000+0  23361-3 0  9996
2 69379  53.1577 245.7919 0001423  86.9750  44.0745 15.80855874  3149
STARLINK-37411          
1 69380U 26123AD  26167.25002315 -.00068634  00000+0 -34615-3 0  9990
2 69380  53.1579 245.8503 0000873  88.1124  15.0742 15.80923088  3148
STARLINK-37427          
1 69381U 26123AE  26167.25002315 -.00027060  00000+0 -13388-3 0  9993
2 69381  53.1576 245.8016 0001061  96.8546  29.7230 15.80889479  3058
QIANFAN-165             
1 69382U 26124A   26167.05563410 -.02109876  00000+0 -12089+1 0  9993
2 69382  88.9976   2.1675 0001772 169.7746 190.3477 14.13769567  1657
QIANFAN-166             
1 69383U 26124B   26166.98145404 -.02098646  00000+0 -11770+1 0  9992
2 69383  88.9976   2.1775 0003801 207.7737 152.3248 14.14903562  1646
QIANFAN-167             
1 69384U 26124C   26166.55832535 -.02069702  00000+0 -11684+1 0  9999
2 69384  88.9981   2.2257 0004982 164.0190 196.1155 14.14488199  1588
QIANFAN-168             
1 69385U 26124D   26166.90767065 -.02053800  00000+0 -11294+1 0  9993
2 69385  88.9980   2.1835 0006837 191.6708 168.4322 14.15868227  1630
QIANFAN-169             
1 69386U 26124E   26166.55296798 -.01943706  00000+0 -10519+1 0  9996
2 69386  88.9976   2.2227 0006816 203.5127 156.5751 14.16502879  1584
QIANFAN-170             
1 69387U 26124F   26167.25676312  .00000073  00000+0  27688-4 0  9996
2 69387  88.9982   2.1437 0002493 117.6653 242.4790 14.20039676  1684
QIANFAN-171             
1 69388U 26124G   26167.04315369 -.02089238  00000+0 -10882+1 0  9994
2 69388  88.9966   2.1655 0006375 199.8711 160.2231 14.18861707  1658
QIANFAN-172             
1 69389U 26124H   26167.11462753  .00000076  00000+0  28128-4 0  9998
2 69389  88.9982   2.1583 0001843 154.5437 205.5845 14.21599532  1668
QIANFAN-173             
1 69390U 26124J   26167.25350153  .00000077  00000+0  28086-4 0  9999
2 69390  88.9980   2.1431 0002347 149.1374 210.9956 14.22005855  1686
QIANFAN-174             
1 69391U 26124K   26166.89879104 -.02013987  00000+0 -10345+1 0  9994
2 69391  88.9971   2.1820 0006758 176.7023 183.4213 14.19450718  1639
QIANFAN-175             
1 69392U 26124L   26167.03980849 -.02064270  00000+0 -10614+1 0  9991
2 69392  88.9968   2.1659 0005008 194.8620 165.2424 14.19503775  1653
QIANFAN-176             
1 69393U 26124M   26166.54699537 -.02119033  00000+0 -10494+1 0  9992
2 69393  88.9975   2.2218 0002715 318.0752  42.0231 14.21621112  1581
QIANFAN-177             
1 69394U 26124N   26166.40561188  .00000039  00000+0  10253-4 0  9996
2 69394  88.9981   2.2376 0003031 158.8133 201.3186 14.25688492  1564
QIANFAN-178             
1 69395U 26124P   26167.03842214 -.02123926  00000+0 -10602+1 0  9998
2 69395  88.9982   2.1647 0004655 134.9628 225.1940 14.21206064  1652
QIANFAN-179             
1 69396U 26124Q   26167.10704264  .00000086  00000+0  30048-4 0  9996
2 69396  88.9985   2.1568 0002796 164.7985 195.3293 14.25729216  1662
QIANFAN-180             
1 69397U 26124R   26167.03544107 -.01861776  00000+0 -92530+0 0  9990
2 69397  88.9975   2.1650 0001941 142.0176 218.1152 14.20905502  1652
QIANFAN-181             
1 69398U 26124S   26167.05350990 -.01991703  00000+0 -11376+1 0  9992
2 69398  88.9984   2.1680 0004001 157.4366 202.6997 14.13695464  1657
QIANFAN-182             
1 69399U 26124T   26166.90502554 -.02027679  00000+0 -10949+1 0  9999
2 69399  88.9977   2.1837 0007477 198.2087 161.8835 14.16797096  1639
DTC TEST OBJECT A       
1 69472U 26128A   26166.88324167  .00023412  00000+0  33927-3 0  9995
2 69472  54.9944 311.0525 0008379 284.2235  75.7870 15.55780003  1026
DTC TEST OBJECT B       
1 69473U 26128B   26166.88196444  .00028562  00000+0  40550-3 0  9992
2 69473  55.0033 311.0492 0008448 285.2598  74.7504 15.56219840  1010
TJS-25                  
1 69474U 26129A   26162.48255804  .00007407  00000+0  19774-2 0  9990
2 69474  16.5302  30.5351 7751889 199.9639  91.9387  1.72502163    78
2026-132A               
1 69502U 26132A   26167.15386252  .00000538  00000+0  49196-4 0  9998
2 69502  97.6911 230.8432 0012399 274.8337  85.1470 14.99043892   629
2026-132B               
1 69503U 26132B   26167.15361314  .00000296  00000+0  29199-4 0  9993
2 69503  97.6942 230.8452 0012310 277.0948  82.8875 14.99134290   628
BRO-22                  
1 69504U 26132C   26167.15191114  .00000872  00000+0  75319-4 0  9998
2 69504  97.6882 230.8421 0013807 288.8226  71.1499 14.99757954   620
2026-132D               
1 69505U 26132D   26167.14804611  .00001415  00000+0  11329-3 0  9995
2 69505  97.6817 230.8394 0011709 297.0190  62.9838 15.01725287   622
